[{"OBJECT_NAME":"STARLINK-3127","OBJECT_ID":"2021-104AU","EPOCH":"2026-03-09T16:40:00.680448","MEAN_MOTION":15.08841272,"ECCENTRICITY":0.00013676,"INCLINATION":53.217,"RA_OF_ASC_NODE":219.1354,"ARG_OF_PERICENTER":103.3769,"MEAN_ANOMALY":256.7375,"EPHEMERIS_TYPE":0,"CLASSIFICATION_TYPE":"U","NORAD_CAT_ID":49450,"ELEMENT_SET_NO":999,"REV_AT_EPOCH":23903,"BSTAR":-8.353768e-6,"MEAN_MOTION_DOT":-4.21e-6,"MEAN_MOTION_DDOT":0},{"OBJECT_NAME":"THOR ABLESTAR DEB","OBJECT_ID":"1961-015G","EPOCH":"2026-03-09T12:36:21.518784","MEAN_MOTION":14.9924172,"ECCENTRICITY":0.00458994,"INCLINATION":66.74,"RA_OF_ASC_NODE":114.2823,"ARG_OF_PERICENTER":282.1843,"MEAN_ANOMALY":77.4151,"EPHEMERIS_TYPE":0,"CLASSIFICATION_TYPE":"U","NORAD_CAT_ID":122,"ELEMENT_SET_NO":999,"REV_AT_EPOCH":37932,"BSTAR":0.00092278357,"MEAN_MOTION_DOT":0.00011411,"MEAN_MOTION_DDOT":0}]
